[
    {
        "CCSDS_OMM_VERS": "3.0",
        "COMMENT": "GENERATED VIA SPACE-TRACK.ORG API",
        "CREATION_DATE": "2025-05-03T22:46:31",
        "ORIGINATOR": "18 SPCS",
        "OBJECT_NAME": "BEIDOU 3M2",
        "OBJECT_ID": "2017-069B",
        "CENTER_NAME": "EARTH",
        "REF_FRAME": "TEME",
        "TIME_SYSTEM": "UTC",
        "MEAN_ELEMENT_THEORY": "SGP4",
        "EPOCH": "2025-05-03T08:59:09.856032",
        "MEAN_MOTION": "1.86230837",
        "ECCENTRICITY": "0.00100560",
        "INCLINATION": "56.3328",
        "RA_OF_ASC_NODE": "76.6571",
        "ARG_OF_PERICENTER": "333.0012",
        "MEAN_ANOMALY": "26.9159",
        "EPHEMERIS_TYPE": "0",
        "CLASSIFICATION_TYPE": "U",
        "NORAD_CAT_ID": "43002",
        "ELEMENT_SET_NO": "999",
        "REV_AT_EPOCH": "5096",
        "BSTAR": "0.00000000000000",
        "MEAN_MOTION_DOT": "-0.00000013",
        "MEAN_MOTION_DDOT": "0.0000000000000",
        "SEMIMAJOR_AXIS": "27906.205",
        "PERIOD": "773.234",
        "APOAPSIS": "21556.132",
        "PERIAPSIS": "21500.007",
        "OBJECT_TYPE": "PAYLOAD",
        "RCS_SIZE": "LARGE",
        "COUNTRY_CODE": "PRC",
        "LAUNCH_DATE": "2017-11-05",
        "SITE": "XSC",
        "DECAY_DATE": null,
        "FILE": "4718140",
        "GP_ID": "286779984",
        "TLE_LINE0": "0 BEIDOU 3M2",
        "TLE_LINE1": "1 43002U 17069B   25123.37441963 -.00000013  00000-0  00000+0 0  9996",
        "TLE_LINE2": "2 43002  56.3328  76.6571 0010056 333.0012  26.9159  1.86230837 50964"
    }
]